OBJECT_NAME,OBJECT_ID,EPOCH,MEAN_MOTION,ECCENTRICITY,INCLINATION,RA_OF_ASC_NODE,ARG_OF_PERICENTER,MEAN_ANOMALY,EPHEMERIS_TYPE,CLASSIFICATION_TYPE,NORAD_CAT_ID,ELEMENT_SET_NO,REV_AT_EPOCH,BSTAR,MEAN_MOTION_DOT,MEAN_MOTION_DDOT
ONEWEB-0721,2023-068R,2026-07-16T15:31:36.034176,13.22470656,.00017421,86.6742,76.1110,79.5505,280.5825,0,U,56725,999,16183,-.11311514E-3,-.33E-6,0
ONEWEB-0015,2024-188A,2026-07-16T10:54:56.871360,13.11418468,.00014894,87.8882,15.2643,75.6741,284.4552,0,U,61594,999,8829,-.10147156E-2,-.347E-5,0
ONEWEB-0687,2024-188B,2026-07-16T11:11:19.857120,13.17650667,.00019353,87.9142,0.0501,78.4959,281.6390,0,U,61595,999,8975,.44896219E-4,.3E-6,0
ONEWEB-0688,2024-188C,2026-07-16T11:52:37.334784,13.17649669,.00011022,87.9142,0.0445,53.7257,306.3976,0,U,61596,999,8975,-.37368438E-3,-.132E-5,0
ONEWEB-0689,2024-188D,2026-07-16T11:43:47.467776,13.11416751,.00020794,87.8897,15.2193,86.0070,274.1296,0,U,61597,999,8829,.15684433E-2,.569E-5,0
ONEWEB-0690,2024-188E,2026-07-16T11:58:26.664672,13.11415018,.00016257,87.8893,15.2278,111.1098,249.0204,0,U,61598,999,8847,.56924141E-3,.214E-5,0
ONEWEB-0691,2024-188F,2026-07-16T11:51:07.505568,13.11415103,.00016718,87.8903,15.1402,80.6330,279.4986,0,U,61599,999,8832,.1053326E-2,.386E-5,0
ONEWEB-0692,2024-188G,2026-07-16T10:30:31.597344,13.11416840,.00026385,87.8882,15.2590,94.5838,265.5592,0,U,61600,999,8830,-.12275609E-2,-.422E-5,0
ONEWEB-0693,2024-188H,2026-07-16T10:20:18.210048,13.17650197,.00014661,87.9138,0.0757,117.9202,242.2078,0,U,61601,999,8973,.11160127E-3,.56E-6,0
ONEWEB-0695,2024-188J,2026-07-16T11:46:14.496384,13.11416155,.00023528,87.8883,15.2407,87.7158,272.4239,0,U,61602,999,8830,.13943926E-2,.507E-5,0
ONEWEB-0697,2024-188K,2026-07-16T10:42:44.573472,13.11417353,.00025739,87.8884,15.2400,96.7882,263.3539,0,U,61603,999,8828,-.14948916E-2,-.517E-5,0
ONEWEB-0698,2024-188L,2026-07-16T12:00:53.210304,13.11415203,.00025407,87.8882,15.2426,117.0548,243.0840,0,U,61604,999,8831,.4145892E-3,.16E-5,0
ONEWEB-0699,2024-188M,2026-07-16T05:32:47.881536,13.10370743,.00024595,87.8814,30.4775,97.6432,262.4975,0,U,61605,999,8711,.10887755E-2,.393E-5,0
ONEWEB-0700,2024-188N,2026-07-16T11:05:05.251776,13.10368508,.00024736,87.8831,30.3453,95.5632,264.5777,0,U,61606,999,8713,.1025068E-2,.37E-5,0
ONEWEB-0701,2024-188P,2026-07-16T11:29:31.224768,13.10370089,.0002564,87.8817,30.4286,99.0697,261.0720,0,U,61607,999,8714,-.13922033E-2,-.473E-5,0
ONEWEB-0702,2024-188Q,2026-07-16T11:16:56.737632,13.11418545,.00028873,87.8904,15.1601,92.8873,267.2586,0,U,61608,999,8832,.69715724E-3,.26E-5,0
ONEWEB-0704,2024-188R,2026-07-16T11:12:25.147872,13.10368803,.00028722,87.8819,30.4207,88.1431,272.0026,0,U,61609,999,8712,-.46233833E-4,-.3E-7,0
ONEWEB-0705,2024-188S,2026-07-16T13:09:42.538464,13.10369118,.00026652,87.8819,30.4107,72.8174,287.3245,0,U,61610,999,7930,-.62775815E-3,-.206E-5,0
ONEWEB-0706,2024-188T,2026-07-16T12:47:43.918944,13.10370895,.00024149,87.8817,30.4171,85.0517,275.0886,0,U,61611,999,8722,.15755352E-2,.563E-5,0
ONEWEB-0707,2024-188U,2026-07-16T01:57:45.055872,13.10368522,.0002428,87.8820,30.5025,87.6253,272.5152,0,U,61612,999,8710,.49334307E-3,.185E-5,0
ONEWEB-0708,2024-188V,2026-07-16T11:34:23.280960,13.10370205,.00019857,87.8813,30.4389,71.8973,288.2370,0,U,61613,999,8713,-.16164064E-2,-.552E-5,0
