ONEWEB-0721             
1 56725U 23068R   26197.64694484 -.00000033  00000+0 -11312-3 0  9992
2 56725  86.6742  76.1110 0001742  79.5505 280.5825 13.22470656161836
ONEWEB-0015             
1 61594U 24188A   26197.45482490 -.00000347  00000+0 -10147-2 0  9999
2 61594  87.8882  15.2643 0001489  75.6741 284.4552 13.11418468 88295
ONEWEB-0687             
1 61595U 24188B   26197.46620205  .00000030  00000+0  44896-4 0  9996
2 61595  87.9142   0.0501 0001935  78.4959 281.6390 13.17650667 89755
ONEWEB-0688             
1 61596U 24188C   26197.49487656 -.00000132  00000+0 -37368-3 0  9991
2 61596  87.9142   0.0445 0001102  53.7257 306.3976 13.17649669 89751
ONEWEB-0689             
1 61597U 24188D   26197.48874384  .00000569  00000+0  15684-2 0  9997
2 61597  87.8897  15.2193 0002079  86.0070 274.1296 13.11416751 88295
ONEWEB-0690             
1 61598U 24188E   26197.49891973  .00000214  00000+0  56924-3 0  9992
2 61598  87.8893  15.2278 0001625 111.1098 249.0204 13.11415018 88477
ONEWEB-0691             
1 61599U 24188F   26197.49383687  .00000386  00000+0  10533-2 0  9996
2 61599  87.8903  15.1402 0001671  80.6330 279.4986 13.11415103 88321
ONEWEB-0692             
1 61600U 24188G   26197.43786571 -.00000422  00000+0 -12276-2 0  9991
2 61600  87.8882  15.2590 0002638  94.5838 265.5592 13.11416840 88306
ONEWEB-0693             
1 61601U 24188H   26197.43076632  .00000056  00000+0  11160-3 0  9995
2 61601  87.9138   0.0757 0001466 117.9202 242.2078 13.17650197 89732
ONEWEB-0695             
1 61602U 24188J   26197.49044556  .00000507  00000+0  13944-2 0  9994
2 61602  87.8883  15.2407 0002352  87.7158 272.4239 13.11416155 88302
ONEWEB-0697             
1 61603U 24188K   26197.44634923 -.00000517  00000+0 -14949-2 0  9992
2 61603  87.8884  15.2400 0002573  96.7882 263.3539 13.11417353 88286
ONEWEB-0698             
1 61604U 24188L   26197.50061586  .00000160  00000+0  41459-3 0  9998
2 61604  87.8882  15.2426 0002540 117.0548 243.0840 13.11415203 88319
ONEWEB-0699             
1 61605U 24188M   26197.23110974  .00000393  00000+0  10888-2 0  9994
2 61605  87.8814  30.4775 0002459  97.6432 262.4975 13.10370743 87114
ONEWEB-0700             
1 61606U 24188N   26197.46186634  .00000370  00000+0  10251-2 0  9995
2 61606  87.8831  30.3453 0002473  95.5632 264.5777 13.10368508 87132
ONEWEB-0701             
1 61607U 24188P   26197.47883362 -.00000473  00000+0 -13922-2 0  9993
2 61607  87.8817  30.4286 0002564  99.0697 261.0720 13.10370089 87141
ONEWEB-0702             
1 61608U 24188Q   26197.47010113  .00000260  00000+0  69716-3 0  9995
2 61608  87.8904  15.1601 0002887  92.8873 267.2586 13.11418545 88325
ONEWEB-0704             
1 61609U 24188R   26197.46695773 -.00000003  00000+0 -46234-4 0  9994
2 61609  87.8819  30.4207 0002872  88.1431 272.0026 13.10368803 87125
ONEWEB-0705             
1 61610U 24188S   26197.54840901 -.00000206  00000+0 -62776-3 0  9993
2 61610  87.8819  30.4107 0002665  72.8174 287.3245 13.10369118 79303
ONEWEB-0706             
1 61611U 24188T   26197.53314721  .00000563  00000+0  15755-2 0  9997
2 61611  87.8817  30.4171 0002414  85.0517 275.0886 13.10370895 87221
ONEWEB-0707             
1 61612U 24188U   26197.08177148  .00000185  00000+0  49334-3 0  9999
2 61612  87.8820  30.5025 0002428  87.6253 272.5152 13.10368522 87104
ONEWEB-0708             
1 61613U 24188V   26197.48221390 -.00000552  00000+0 -16164-2 0  9997
2 61613  87.8813  30.4389 0001985  71.8973 288.2370 13.10370205 87130
